{
  "type": "FeatureCollection",
  "features": [
    {
      "type": "Feature",
      "properties": {
        "norad_id": 66436,
        "name": "STARLINK-35501",
        "group": "last-30-days",
        "lat": 25.973376917056516,
        "lon": 121.24435262400849,
        "alt_km": 411.54320286470283,
        "timestamp": "2025-12-05T11:32:54.808836+00:00",
        "meta_object_name": "STARLINK-35501",
        "meta_object_id": "2025-259Q",
        "meta_epoch": "2025-12-04T18:00:02.000160",
        "meta_mean_motion": 15.50527023,
        "meta_eccentricity": 0.0001584,
        "meta_inclination": 43.0007,
        "meta_ra_of_asc_node": 94.0034,
        "meta_arg_of_pericenter": 271.3581,
        "meta_mean_anomaly": 2.4187,
        "meta_ephemeris_type": 0,
        "meta_classification_type": "U",
        "meta_norad_cat_id": 66436,
        "meta_element_set_no": 999,
        "meta_rev_at_epoch": 499,
        "meta_bstar": 0.0004693,
        "meta_mean_motion_dot": 0.00027235,
        "meta_mean_motion_ddot": 0,
        "tle_line1": "1 66436U 25259Q   25338.75002315  .00027235  00000+0  46930-3 0  9995",
        "tle_line2": "2 66436  43.0007  94.0034 0001584 271.3581   2.4187 15.50527023  4990"
      },
      "geometry": {
        "type": "Point",
        "coordinates": [
          121.24435262400849,
          25.973376917056516
        ]
      }
    },
    {
      "type": "Feature",
      "properties": {
        "norad_id": 66437,
        "name": "STARLINK-35474",
        "group": "last-30-days",
        "lat": 27.062477033610378,
        "lon": 122.96844825153201,
        "alt_km": 411.3576712428094,
        "timestamp": "2025-12-05T11:32:54.808846+00:00",
        "meta_object_name": "STARLINK-35474",
        "meta_object_id": "2025-259R",
        "meta_epoch": "2025-12-04T18:00:02.000160",
        "meta_mean_motion": 15.50566117,
        "meta_eccentricity": 0.0001431,
        "meta_inclination": 43.0007,
        "meta_ra_of_asc_node": 93.9988,
        "meta_arg_of_pericenter": 279.9412,
        "meta_mean_anomaly": 355.739,
        "meta_ephemeris_type": 0,
        "meta_classification_type": "U",
        "meta_norad_cat_id": 66437,
        "meta_element_set_no": 999,
        "meta_rev_at_epoch": 499,
        "meta_bstar": -0.00056154,
        "meta_mean_motion_dot": -0.0003313,
        "meta_mean_motion_ddot": 0,
        "tle_line1": "1 66437U 25259R   25338.75002315 -.00033130  00000+0 -56154-3 0  9998",
        "tle_line2": "2 66437  43.0007  93.9988 0001431 279.9412 355.7390 15.50566117  4992"
      },
      "geometry": {
        "type": "Point",
        "coordinates": [
          122.96844825153201,
          27.062477033610378
        ]
      }
    },
    {
      "type": "Feature",
      "properties": {
        "norad_id": 66438,
        "name": "STARLINK-34681",
        "group": "last-30-days",
        "lat": 28.162475524085632,
        "lon": 124.78037835451701,
        "alt_km": 411.31000143761594,
        "timestamp": "2025-12-05T11:32:54.808856+00:00",
        "meta_object_name": "STARLINK-34681",
        "meta_object_id": "2025-259S",
        "meta_epoch": "2025-12-04T18:00:02.000160",
        "meta_mean_motion": 15.5053682,
        "meta_eccentricity": 0.0001519,
        "meta_inclination": 43.0007,
        "meta_ra_of_asc_node": 93.9939,
        "meta_arg_of_pericenter": 263.2501,
        "meta_mean_anomaly": 14.346,
        "meta_ephemeris_type": 0,
        "meta_classification_type": "U",
        "meta_norad_cat_id": 66438,
        "meta_element_set_no": 999,
        "meta_rev_at_epoch": 488,
        "meta_bstar": 0.00042836,
        "meta_mean_motion_dot": 0.0002483,
        "meta_mean_motion_ddot": 0,
        "tle_line1": "1 66438U 25259S   25338.75002315  .00024830  00000+0  42836-3 0  9996",
        "tle_line2": "2 66438  43.0007  93.9939 0001519 263.2501  14.3460 15.50536820  4883"
      },
      "geometry": {
        "type": "Point",
        "coordinates": [
          124.78037835451701,
          28.162475524085632
        ]
      }
    },
    {
      "type": "Feature",
      "properties": {
        "norad_id": 66439,
        "name": "STARLINK-35327",
        "group": "last-30-days",
        "lat": 24.85832836021494,
        "lon": 119.54571323214512,
        "alt_km": 411.6565036673146,
        "timestamp": "2025-12-05T11:32:54.808866+00:00",
        "meta_object_name": "STARLINK-35327",
        "meta_object_id": "2025-259T",
        "meta_epoch": "2025-12-04T18:00:02.000160",
        "meta_mean_motion": 15.50538102,
        "meta_eccentricity": 0.000154,
        "meta_inclination": 43.0007,
        "meta_ra_of_asc_node": 94.0102,
        "meta_arg_of_pericenter": 269.9839,
        "meta_mean_anomaly": 1.8599,
        "meta_ephemeris_type": 0,
        "meta_classification_type": "U",
        "meta_norad_cat_id": 66439,
        "meta_element_set_no": 999,
        "meta_rev_at_epoch": 499,
        "meta_bstar": 0.00050827,
        "meta_mean_motion_dot": 0.00029545,
        "meta_mean_motion_ddot": 0,
        "tle_line1": "1 66439U 25259T   25338.75002315  .00029545  00000+0  50827-3 0  9994",
        "tle_line2": "2 66439  43.0007  94.0102 0001540 269.9839   1.8599 15.50538102  4990"
      },
      "geometry": {
        "type": "Point",
        "coordinates": [
          119.54571323214512,
          24.85832836021494
        ]
      }
    },
    {
      "type": "Feature",
      "properties": {
        "norad_id": 66440,
        "name": "STARLINK-35405",
        "group": "last-30-days",
        "lat": 29.21477203638498,
        "lon": 126.59002154782598,
        "alt_km": 410.98321985129587,
        "timestamp": "2025-12-05T11:32:54.808881+00:00",
        "meta_object_name": "STARLINK-35405",
        "meta_object_id": "2025-259U",
        "meta_epoch": "2025-12-04T18:00:02.000160",
        "meta_mean_motion": 15.50532351,
        "meta_eccentricity": 0.0001396,
        "meta_inclination": 43.0005,
        "meta_ra_of_asc_node": 93.9899,
        "meta_arg_of_pericenter": 276.9355,
        "meta_mean_anomaly": 2.5939,
        "meta_ephemeris_type": 0,
        "meta_classification_type": "U",
        "meta_norad_cat_id": 66440,
        "meta_element_set_no": 999,
        "meta_rev_at_epoch": 499,
        "meta_bstar": 0.00027555,
        "meta_mean_motion_dot": 0.0001583,
        "meta_mean_motion_ddot": 0,
        "tle_line1": "1 66440U 25259U   25338.75002315  .00015830  00000+0  27555-3 0  9990",
        "tle_line2": "2 66440  43.0005  93.9899 0001396 276.9355   2.5939 15.50532351  4997"
      },
      "geometry": {
        "type": "Point",
        "coordinates": [
          126.59002154782598,
          29.21477203638498
        ]
      }
    },
    {
      "type": "Feature",
      "properties": {
        "norad_id": 66441,
        "name": "STARLINK-35426",
        "group": "last-30-days",
        "lat": 30.253566553068133,
        "lon": 128.45546216737878,
        "alt_km": 410.8481657618595,
        "timestamp": "2025-12-05T11:32:54.808893+00:00",
        "meta_object_name": "STARLINK-35426",
        "meta_object_id": "2025-259V",
        "meta_epoch": "2025-12-04T18:00:02.000160",
        "meta_mean_motion": 15.5054496,
        "meta_eccentricity": 0.0001529,
        "meta_inclination": 43.0007,
        "meta_ra_of_asc_node": 93.9841,
        "meta_arg_of_pericenter": 279.9401,
        "meta_mean_anomaly": 1.497,
        "meta_ephemeris_type": 0,
        "meta_classification_type": "U",
        "meta_norad_cat_id": 66441,
        "meta_element_set_no": 999,
        "meta_rev_at_epoch": 499,
        "meta_bstar": 0.00013402,
        "meta_mean_motion_dot": 7.519e-05,
        "meta_mean_motion_ddot": 0,
        "tle_line1": "1 66441U 25259V   25338.75002315  .00007519  00000+0  13402-3 0  9992",
        "tle_line2": "2 66441  43.0007  93.9841 0001529 279.9401   1.4970 15.50544960  4992"
      },
      "geometry": {
        "type": "Point",
        "coordinates": [
          128.45546216737878,
          30.253566553068133
        ]
      }
    },
    {
      "type": "Feature",
      "properties": {
        "norad_id": 66442,
        "name": "STARLINK-34724",
        "group": "last-30-days",
        "lat": 31.25793136919294,
        "lon": 130.34841774806085,
        "alt_km": 410.7986932142012,
        "timestamp": "2025-12-05T11:32:54.808903+00:00",
        "meta_object_name": "STARLINK-34724",
        "meta_object_id": "2025-259W",
        "meta_epoch": "2025-12-04T18:00:02.000160",
        "meta_mean_motion": 15.50558974,
        "meta_eccentricity": 0.0001384,
        "meta_inclination": 43.0007,
        "meta_ra_of_asc_node": 93.9801,
        "meta_arg_of_pericenter": 269.6881,
        "meta_mean_anomaly": 13.6514,
        "meta_ephemeris_type": 0,
        "meta_classification_type": "U",
        "meta_norad_cat_id": 66442,
        "meta_element_set_no": 999,
        "meta_rev_at_epoch": 499,
        "meta_bstar": -7.2621e-05,
        "meta_mean_motion_dot": -4.596e-05,
        "meta_mean_motion_ddot": 0,
        "tle_line1": "1 66442U 25259W   25338.75002315 -.00004596  00000+0 -72621-4 0  9996",
        "tle_line2": "2 66442  43.0007  93.9801 0001384 269.6881  13.6514 15.50558974  4995"
      },
      "geometry": {
        "type": "Point",
        "coordinates": [
          130.34841774806085,
          31.25793136919294
        ]
      }
    }
  ]
}